MALLIGYONG-1            
1 58400U 23179A   24156.94832049  .00054019  00000+0  23471-2 0  9993
2 58400  97.4034  44.0043 0003895 316.2634  54.2438 15.22090638 29868
